{"type": "FeatureCollection", "features": [ {"type": "Feature", "properties": {"norad_id": 30555, "name": "FENGYUN 1C DEB", "group": "fengyun-1c-debris", "lat": -46.49892726431162, "lon": -159.2764749101687, "alt_km": 821.5040108312378, "timestamp": "2025-12-02T10:50:47.551306+00:00", "meta": {"OBJECT_NAME": "FENGYUN 1C DEB", "OBJECT_ID": "1999-025AKV", "EPOCH": "2025-12-02T03:16:19.210080", "MEAN_MOTION": 14.20709404, "ECCENTRICITY": 0.0041994, "INCLINATION": 98.759, "RA_OF_ASC_NODE": 29.7605, "ARG_OF_PERICENTER": 302.5809, "MEAN_ANOMALY": 111.7384, "EPHEMERIS_TYPE": 0, "CLASSIFICATION_TYPE": "U", "NORAD_CAT_ID": 30555, "ELEMENT_SET_NO": 999, "REV_AT_EPOCH": 96785, "BSTAR": 0.0015275, "MEAN_MOTION_DOT": 3.279e-05, "MEAN_MOTION_DDOT": 0}, "tle": {"line1": "1 30555U 99025AKV 25336.13633345  .00003279  00000+0  15275-2 0  9992", "line2": "2 30555  98.7590  29.7605 0041994 302.5809 111.7384 14.20709404967852"}}, "geometry": {"type": "Point", "coordinates": [-159.2764749101687, -46.49892726431162]}}, {"type": "Feature", "properties": {"norad_id": 30556, "name": "FENGYUN 1C DEB", "group": "fengyun-1c-debris", "lat": 11.661943629561712, "lon": -31.73228933312146, "alt_km": 902.9528649611075, "timestamp": "2025-12-02T10:50:47.551316+00:00", "meta": {"OBJECT_NAME": "FENGYUN 1C DEB", "OBJECT_ID": "1999-025AKW", "EPOCH": "2025-12-01T23:03:48.716064", "MEAN_MOTION": 14.01351648, "ECCENTRICITY": 0.0067695, "INCLINATION": 98.7819, "RA_OF_ASC_NODE": 329.6237, "ARG_OF_PERICENTER": 268.0877, "MEAN_ANOMALY": 147.6238, "EPHEMERIS_TYPE": 0, "CLASSIFICATION_TYPE": "U", "NORAD_CAT_ID": 30556, "ELEMENT_SET_NO": 999, "REV_AT_EPOCH": 96106, "BSTAR": 0.00030617, "MEAN_MOTION_DOT": 4.28e-06, "MEAN_MOTION_DDOT": 0}, "tle": {"line1": "1 30556U 99025AKW 25335.96098051  .00000428  00000+0  30617-3 0  9993", "line2": "2 30556  98.7819 329.6237 0067695 268.0877 147.6238 14.01351648961062"}}, "geometry": {"type": "Point", "coordinates": [-31.73228933312146, 11.661943629561712]}}, {"type": "Feature", "properties": {"norad_id": 30557, "name": "FENGYUN 1C DEB", "group": "fengyun-1c-debris", "lat": 32.60084588873412, "lon": -132.54964776009683, "alt_km": 875.019402149901, "timestamp": "2025-12-02T10:50:47.551326+00:00", "meta": {"OBJECT_NAME": "FENGYUN 1C DEB", "OBJECT_ID": "1999-025AKX", "EPOCH": "2025-12-02T03:20:12.846048", "MEAN_MOTION": 14.10713208, "ECCENTRICITY": 0.0067534, "INCLINATION": 98.9214, "RA_OF_ASC_NODE": 41.3742, "ARG_OF_PERICENTER": 262.3903, "MEAN_ANOMALY": 96.9594, "EPHEMERIS_TYPE": 0, "CLASSIFICATION_TYPE": "U", "NORAD_CAT_ID": 30557, "ELEMENT_SET_NO": 999, "REV_AT_EPOCH": 96151, "BSTAR": 0.0015899, "MEAN_MOTION_DOT": 2.859e-05, "MEAN_MOTION_DDOT": 0}, "tle": {"line1": "1 30557U 99025AKX 25336.13903757  .00002859  00000+0  15899-2 0  9996", "line2": "2 30557  98.9214  41.3742 0067534 262.3903  96.9594 14.10713208961517"}}, "geometry": {"type": "Point", "coordinates": [-132.54964776009683, 32.60084588873412]}}, {"type": "Feature", "properties": {"norad_id": 30558, "name": "FENGYUN 1C DEB", "group": "fengyun-1c-debris", "lat": 39.59265780270931, "lon": 110.29883956385606, "alt_km": 1204.2902193676446, "timestamp": "2025-12-02T10:50:47.551338+00:00", "meta": {"OBJECT_NAME": "FENGYUN 1C DEB", "OBJECT_ID": "1999-025AKY", "EPOCH": "2025-11-30T15:16:00.558048", "MEAN_MOTION": 13.28421345, "ECCENTRICITY": 0.042304, "INCLINATION": 99.467, "RA_OF_ASC_NODE": 116.5631, "ARG_OF_PERICENTER": 302.4359, "MEAN_ANOMALY": 53.651, "EPHEMERIS_TYPE": 0, "CLASSIFICATION_TYPE": "U", "NORAD_CAT_ID": 30558, "ELEMENT_SET_NO": 999, "REV_AT_EPOCH": 90597, "BSTAR": 0.0035398, "MEAN_MOTION_DOT": 2.593e-05, "MEAN_MOTION_DDOT": 0}, "tle": {"line1": "1 30558U 99025AKY 25334.63611757  .00002593  00000+0  35398-2 0  9997", "line2": "2 30558  99.4670 116.5631 0423040 302.4359  53.6510 13.28421345905973"}}, "geometry": {"type": "Point", "coordinates": [110.29883956385606, 39.59265780270931]}}, {"type": "Feature", "properties": {"norad_id": 30560, "name": "FENGYUN 1C DEB", "group": "fengyun-1c-debris", "lat": 29.243912261496956, "lon": -34.4414218780811, "alt_km": 904.018997485181, "timestamp": "2025-12-02T10:50:47.551348+00:00", "meta": {"OBJECT_NAME": "FENGYUN 1C DEB", "OBJECT_ID": "1999-025ALA", "EPOCH": "2025-12-01T23:06:11.644992", "MEAN_MOTION": 14.17006085, "ECCENTRICITY": 0.0114542, "INCLINATION": 98.6633, "RA_OF_ASC_NODE": 329.9787, "ARG_OF_PERICENTER": 242.884, "MEAN_ANOMALY": 171.4851, "EPHEMERIS_TYPE": 0, "CLASSIFICATION_TYPE": "U", "NORAD_CAT_ID": 30560, "ELEMENT_SET_NO": 999, "REV_AT_EPOCH": 97216, "BSTAR": 0.00034331, "MEAN_MOTION_DOT": 6.92e-06, "MEAN_MOTION_DDOT": 0}, "tle": {"line1": "1 30560U 99025ALA 25335.96263478  .00000692  00000+0  34331-3 0  9995", "line2": "2 30560  98.6633 329.9787 0114542 242.8840 171.4851 14.17006085972165"}}, "geometry": {"type": "Point", "coordinates": [-34.4414218780811, 29.243912261496956]}}, {"type": "Feature", "properties": {"norad_id": 30561, "name": "FENGYUN 1C DEB", "group": "fengyun-1c-debris", "lat": -18.608591790595835, "lon": -18.158490029940893, "alt_km": 901.4593542772363, "timestamp": "2025-12-02T10:50:47.551358+00:00", "meta": {"OBJECT_NAME": "FENGYUN 1C DEB", "OBJECT_ID": "1999-025ALB", "EPOCH": "2025-12-01T18:46:18.547104", "MEAN_MOTION": 14.11251033, "ECCENTRICITY": 0.006036, "INCLINATION": 98.7248, "RA_OF_ASC_NODE": 338.2269, "ARG_OF_PERICENTER": 144.6912, "MEAN_ANOMALY": 35.8878, "EPHEMERIS_TYPE": 0, "CLASSIFICATION_TYPE": "U", "NORAD_CAT_ID": 30561, "ELEMENT_SET_NO": 999, "REV_AT_EPOCH": 96823, "BSTAR": 0.00033322, "MEAN_MOTION_DOT": 5.7e-06, "MEAN_MOTION_DDOT": 0}, "tle": {"line1": "1 30561U 99025ALB 25335.78215911  .00000570  00000+0  33322-3 0  9999", "line2": "2 30561  98.7248 338.2269 0060360 144.6912  35.8878 14.11251033968238"}}, "geometry": {"type": "Point", "coordinates": [-18.158490029940893, -18.608591790595835]}}, {"type": "Feature", "properties": {"norad_id": 30562, "name": "FENGYUN 1C DEB", "group": "fengyun-1c-debris", "lat": 44.50225660011387, "lon": -127.03212298445017, "alt_km": 851.2506995460244, "timestamp": "2025-12-02T10:50:47.551368+00:00", "meta": {"OBJECT_NAME": "FENGYUN 1C DEB", "OBJECT_ID": "1999-025ALC", "EPOCH": "2025-12-02T03:42:48.011904", "MEAN_MOTION": 14.22934947, "ECCENTRICITY": 0.0058436, "INCLINATION": 98.7648, "RA_OF_ASC_NODE": 43.9513, "ARG_OF_PERICENTER": 296.2639, "MEAN_ANOMALY": 117.0543, "EPHEMERIS_TYPE": 0, "CLASSIFICATION_TYPE": "U", "NORAD_CAT_ID": 30562, "ELEMENT_SET_NO": 999, "REV_AT_EPOCH": 96849, "BSTAR": 0.0017511, "MEAN_MOTION_DOT": 3.965e-05, "MEAN_MOTION_DDOT": 0}, "tle": {"line1": "1 30562U 99025ALC 25336.15472236  .00003965  00000+0  17511-2 0  9999", "line2": "2 30562  98.7648  43.9513 0058436 296.2639 117.0543 14.22934947968490"}}, "geometry": {"type": "Point", "coordinates": [-127.03212298445017, 44.50225660011387]}}, {"type": "Feature", "properties": {"norad_id": 30564, "name": "FENGYUN 1C DEB", "group": "fengyun-1c-debris", "lat": -13.667725646238639, "lon": -9.307852371067835, "alt_km": 1017.7238367189057, "timestamp": "2025-12-02T10:50:47.551378+00:00", "meta": {"OBJECT_NAME": "FENGYUN 1C DEB", "OBJECT_ID": "1999-025ALE", "EPOCH": "2025-12-01T23:15:16.662240", "MEAN_MOTION": 14.05712379, "ECCENTRICITY": 0.0202861, "INCLINATION": 98.7969, "RA_OF_ASC_NODE": 348.0649, "ARG_OF_PERICENTER": 149.04, "MEAN_ANOMALY": 275.114, "EPHEMERIS_TYPE": 0, "CLASSIFICATION_TYPE": "U", "NORAD_CAT_ID": 30564, "ELEMENT_SET_NO": 999, "REV_AT_EPOCH": 96144, "BSTAR": 0.00073945, "MEAN_MOTION_DOT": 1.41e-05, "MEAN_MOTION_DDOT": 0}, "tle": {"line1": "1 30564U 99025ALE 25335.96894285  .00001410  00000+0  73945-3 0  9998", "line2": "2 30564  98.7969 348.0649 0202861 149.0400 275.1140 14.05712379961442"}}, "geometry": {"type": "Point", "coordinates": [-9.307852371067835, -13.667725646238639]}}, {"type": "Feature", "properties": {"norad_id": 30565, "name": "FENGYUN 1C DEB", "group": "fengyun-1c-debris", "lat": -12.25378400022131, "lon": -150.85677002348936, "alt_km": 781.6714174527833, "timestamp": "2025-12-02T10:50:47.551388+00:00", "meta": {"OBJECT_NAME": "FENGYUN 1C DEB", "OBJECT_ID": "1999-025ALF", "EPOCH": "2025-12-02T03:05:36.159072", "MEAN_MOTION": 14.09820973, "ECCENTRICITY": 0.0143053, "INCLINATION": 98.4546, "RA_OF_ASC_NODE": 206.9884, "ARG_OF_PERICENTER": 26.1857, "MEAN_ANOMALY": 123.8662, "EPHEMERIS_TYPE": 0, "CLASSIFICATION_TYPE": "U", "NORAD_CAT_ID": 30565, "ELEMENT_SET_NO": 999, "REV_AT_EPOCH": 95777, "BSTAR": 0.002083, "MEAN_MOTION_DOT": 3.989e-05, "MEAN_MOTION_DDOT": 0}, "tle": {"line1": "1 30565U 99025ALF 25336.12889073  .00003989  00000+0  20830-2 0  9994", "line2": "2 30565  98.4546 206.9884 0143053  26.1857 123.8662 14.09820973957775"}}, "geometry": {"type": "Point", "coordinates": [-150.85677002348936, -12.25378400022131]}}, {"type": "Feature", "properties": {"norad_id": 30566, "name": "FENGYUN 1C DEB", "group": "fengyun-1c-debris", "lat": -42.39074631075125, "lon": -163.8109670116367, "alt_km": 812.3604972891308, "timestamp": "2025-12-02T10:50:47.551398+00:00", "meta": {"OBJECT_NAME": "FENGYUN 1C DEB", "OBJECT_ID": "1999-025ALG", "EPOCH": "2025-12-02T01:35:22.438752", "MEAN_MOTION": 14.11602625, "ECCENTRICITY": 0.0068066, "INCLINATION": 99.2179, "RA_OF_ASC_NODE": 24.3175, "ARG_OF_PERICENTER": 211.521, "MEAN_ANOMALY": 212.3, "EPHEMERIS_TYPE": 0, "CLASSIFICATION_TYPE": "U", "NORAD_CAT_ID": 30566, "ELEMENT_SET_NO": 999, "REV_AT_EPOCH": 96232, "BSTAR": 0.0016522, "MEAN_MOTION_DOT": 3.022e-05, "MEAN_MOTION_DDOT": 0}, "tle": {"line1": "1 30566U 99025ALG 25336.06623193  .00003022  00000+0  16522-2 0  9998", "line2": "2 30566  99.2179  24.3175 0068066 211.5210 212.3000 14.11602625962327"}}, "geometry": {"type": "Point", "coordinates": [-163.8109670116367, -42.39074631075125]}}]}